NORAD_CAT_ID,OBJECT_NAME,OBJECT_TYPE,EPOCH,MEAN_MOTION,ECCENTRICITY,INCLINATION,RA_OF_ASC_NODE,ARG_OF_PERICENTER,MEAN_ANOMALY,BSTAR,MEAN_MOTION_DOT,MEAN_MOTION_DDOT,TLE_LINE0,TLE_LINE1,TLE_LINE2,SEMIMAJOR_AXIS,PERIOD,APOGEE,PERIGEE,DECAYED
55780.0,STARLINK-5819,PAYLOAD,2023-05-01 02:46:38,15.69919142,0.0003058,69.9987,351.1172,271.3857,88.6988,-3.4305e-05,-4.334e-05,0.0,0 STARLINK-5819,1 55780U 23028AR  23121.11572414 -.00004334  00000-0 -34305-4 0  9999,2 55780  69.9987 351.1172 0003058 271.3857  88.6988 15.69919142  9838,6737.265,91.724,361.191,357.07,0.0
55780.0,STARLINK-5819,PAYLOAD,2023-05-01 18:04:08,15.69924256,0.0003496,69.9973,349.3242,265.2126,94.8671,8.3996e-06,7.97e-06,0.0,0 STARLINK-5819,1 55780U 23028AR  23121.75287779  .00000797  00000-0  83996-5 0  9994,2 55780  69.9973 349.3242 0003496 265.2126  94.8671 15.69924256  9938,6737.251,91.724,361.471,356.76,0.0
55780.0,STARLINK-5819,PAYLOAD,2023-05-02 01:42:53,15.69930156,0.0002527,69.9991,348.4324,263.4428,96.648,1.2234e-05,1.259e-05,0.0,0 STARLINK-5819,1 55780U 23028AR  23122.07145778  .00001259  00000-0  12234-4 0  9992,2 55780  69.9991 348.4324 0002527 263.4428  96.6480 15.69930156  9987,6737.234,91.724,360.801,357.396,0.0
55780.0,STARLINK-5819,PAYLOAD,2023-05-02 21:35:40,15.69925195,0.0003088,69.9982,346.1031,254.4474,105.6381,5.3502e-06,4.31e-06,0.0,0 STARLINK-5819,1 55780U 23028AR  23122.89977783  .00000431  00000-0  53502-5 0  9996,2 55780  69.9982 346.1031 0003088 254.4474 105.6381 15.69925195 10116,6737.248,91.724,361.193,357.033,0.0
55780.0,STARLINK-5819,PAYLOAD,2023-05-03 02:10:56,15.69923134,0.0003068,69.9996,345.5674,251.05,109.0364,4.8859e-06,3.75e-06,0.0,0 STARLINK-5819,1 55780U 23028AR  23123.09093113  .00000375  00000-0  48859-5 0  9991,2 55780  69.9996 345.5674 0003068 251.0500 109.0364 15.69923134 10141,6737.254,91.724,361.186,357.052,0.0
55780.0,STARLINK-5819,PAYLOAD,2023-05-03 17:28:28,15.69922014,0.0003272,69.9978,343.7731,266.0427,94.0395,-6.9246e-06,-1.045e-05,0.0,0 STARLINK-5819,1 55780U 23028AR  23123.72810300 -.00001045  00000-0 -69246-5 0  9996,2 55780  69.9978 343.7731 0003272 266.0427  94.0395 15.69922014 10240,6737.257,91.724,361.327,356.918,0.0
55780.0,STARLINK-5819,PAYLOAD,2023-05-04 13:21:13,15.69934446,0.0003402,69.9978,341.4419,266.7832,93.2975,1.8167e-05,1.973e-05,0.0,0 STARLINK-5819,1 55780U 23028AR  23124.55640638  .00001973  00000-0  18167-4 0  9996,2 55780  69.9978 341.4419 0003402 266.7832  93.2975 15.69934446 10371,6737.222,91.724,361.379,356.795,0.0
55780.0,STARLINK-5819,PAYLOAD,2023-05-04 17:56:30,15.69908888,0.0003462,69.9987,340.9076,275.491,84.589,4.0041e-06,2.68e-06,0.0,0 STARLINK-5819,1 55780U 23028AR  23124.74757452  .00000268  00000-0  40041-5 0  9993,2 55780  69.9987 340.9076 0003462 275.4910  84.5890 15.69908888 10408,6737.295,91.725,361.492,356.827,0.0
55780.0,STARLINK-5819,PAYLOAD,2023-05-04 20:59:59,15.69927981,0.0003546,69.9982,340.5506,260.4603,99.6192,1.9585e-05,2.143e-05,0.0,0 STARLINK-5819,1 55780U 23028AR  23124.87499347  .00002143  00000-0  19585-4 0  9995,2 55780  69.9982 340.5506 0003546 260.4603  99.6192 15.69927981 10422,6737.24,91.724,361.494,356.716,0.0
55780.0,STARLINK-5819,PAYLOAD,2023-05-04 22:31:44,15.69929325,0.0003427,69.9982,340.3712,260.0165,100.0644,2.0648e-05,2.271e-05,0.0,0 STARLINK-5819,1 55780U 23028AR  23124.93870928  .00002271  00000-0  20648-4 0  9994,2 55780  69.9982 340.3712 0003427 260.0165 100.0644 15.69929325 10430,6737.236,91.724,361.41,356.792,0.0
55780.0,STARLINK-5819,PAYLOAD,2023-05-05 16:52:46,15.69920143,0.0003507,69.9972,338.2199,259.3737,100.7064,1.1037e-05,1.114e-05,0.0,0 STARLINK-5819,1 55780U 23028AR  23125.70331788  .00001114  00000-0  11037-4 0  9993,2 55780  69.9972 338.2199 0003507 259.3737 100.7064 15.69920143 10554,6737.262,91.724,361.49,356.765,0.0
55780.0,STARLINK-5819,PAYLOAD,2023-05-06 00:31:31,15.699288,0.0003473,69.9975,337.3227,258.426,101.6546,1.7523e-05,1.895e-05,0.0,0 STARLINK-5819,1 55780U 23028AR  23126.02189588  .00001895  00000-0  17523-4 0  9990,2 55780  69.9975 337.3227 0003473 258.4260 101.6546 15.69928800 10601,6737.238,91.724,361.443,356.763,0.0
55780.0,STARLINK-5819,PAYLOAD,2023-05-06 15:49:03,15.69918233,0.0003674,69.9979,335.5309,259.2263,100.8519,1.2954e-05,1.345e-05,0.0,0 STARLINK-5819,1 55780U 23028AR  23126.65906790  .00001345  00000-0  12954-4 0  9994,2 55780  69.9979 335.5309 0003674 259.2263 100.8519 15.69918233 10702,6737.268,91.725,361.608,356.658,0.0
55780.0,STARLINK-5819,PAYLOAD,2023-05-06 23:27:48,15.69926954,0.000376,69.9966,334.6342,262.8914,97.1854,2.0757e-05,2.284e-05,0.0,0 STARLINK-5819,1 55780U 23028AR  23126.97764577  .00002284  00000-0  20757-4 0  9997,2 55780  69.9966 334.6342 0003760 262.8914  97.1854 15.69926954 10758,6737.243,91.724,361.641,356.575,0.0
55780.0,STARLINK-5819,PAYLOAD,2023-05-07 16:17:05,15.69919864,0.0003262,69.9974,332.6633,259.0995,100.9833,4.3383e-06,3.09e-06,0.0,0 STARLINK-5819,1 55780U 23028AR  23127.67853683  .00000309  00000-0  43383-5 0  9999,2 55780  69.9974 332.6633 0003262 259.0995 100.9833 15.69919864 10866,6737.263,91.724,361.326,356.931,0.0
55780.0,STARLINK-5819,PAYLOAD,2023-05-07 23:55:50,15.69931689,0.000319,69.9974,331.7683,258.4058,101.678,1.9891e-05,2.18e-05,0.0,0 STARLINK-5819,1 55780U 23028AR  23127.99711338  .00002180  00000-0  19891-4 0  9999,2 55780  69.9974 331.7683 0003190 258.4058 101.6780 15.69931689 10918,6737.229,91.724,361.244,356.945,0.0
55780.0,STARLINK-5819,PAYLOAD,2023-05-08 21:20:21,15.69938634,0.000376,69.9994,329.2605,268.7945,91.282,2.7041e-05,3.042e-05,0.0,0 STARLINK-5819,1 55780U 23028AR  23128.88914296  .00003042  00000-0  27041-4 0  9990,2 55780  69.9994 329.2605 0003760 268.7945  91.2820 15.69938634 11050,6737.21,91.723,361.608,356.541,0.0
55780.0,STARLINK-5819,PAYLOAD,2023-05-09 14:09:38,15.69927233,0.000391,69.9985,327.2887,269.856,90.2188,5.8817e-06,4.94e-06,0.0,0 STARLINK-5819,1 55780U 23028AR  23129.59003273  .00000494  00000-0  58817-5 0  9997,2 55780  69.9985 327.2887 0003910 269.8560  90.2188 15.69927233 11163,6737.242,91.724,361.741,356.473,0.0
55780.0,STARLINK-5819,PAYLOAD,2023-05-10 00:51:54,15.69929383,0.000426,69.999,326.036,268.8955,91.1753,9.6827e-06,9.52e-06,0.0,0 STARLINK-5819,1 55780U 23028AR  23130.03604728  .00000952  00000-0  96827-5 0  9992,2 55780  69.9990 326.0360 0004260 268.8955  91.1753 15.69929383 11232,6737.236,91.724,361.971,356.231,0.0
55780.0,STARLINK-5819,PAYLOAD,2023-05-10 16:09:25,15.69929244,0.0003825,69.9997,324.2441,272.1638,87.9119,1.8672e-05,2.033e-05,0.0,0 STARLINK-5819,1 55780U 23028AR  23130.67321673  .00002033  00000-0  18672-4 0  9990,2 55780  69.9997 324.2441 0003825 272.1638  87.9119 15.69929244 11337,6737.236,91.724,361.678,356.524,0.0
55780.0,STARLINK-5819,PAYLOAD,2023-05-11 05:55:12,15.69917513,0.0003941,69.9997,322.633,268.5429,91.5315,8.9886e-07,-1.05e-06,0.0,0 STARLINK-5819,1 55780U 23028AR  23131.24667051 -.00000105  00000-0  89886-6 0  9993,2 55780  69.9997 322.6330 0003941 268.5429  91.5315 15.69917513 11427,6737.27,91.725,361.79,356.48,0.0
55780.0,STARLINK-5819,PAYLOAD,2023-05-11 15:05:43,15.69915293,0.0003847,70.0004,321.558,267.1925,92.8831,-3.1992e-06,-5.98e-06,0.0,0 STARLINK-5819,1 55780U 23028AR  23131.62897347 -.00000598  00000-0 -31992-5 0  9999,2 55780  70.0004 321.5580 0003847 267.1925  92.8831 15.69915293 11481,6737.276,91.725,361.733,356.55,0.0
55780.0,STARLINK-5819,PAYLOAD,2023-05-11 21:12:43,15.69933167,0.0003887,69.9985,320.8404,255.9819,104.0945,3.2707e-05,3.723e-05,0.0,0 STARLINK-5819,1 55780U 23028AR  23131.88383222  .00003723  00000-0  32707-4 0  9994,2 55780  69.9985 320.8404 0003887 255.9819 104.0945 15.69933167 11521,6737.225,91.724,361.709,356.471,0.0
55780.0,STARLINK-5819,PAYLOAD,2023-05-11 22:44:28,15.69928903,0.0003348,70.0,320.6608,257.5153,102.5668,2.8669e-05,3.236e-05,0.0,0 STARLINK-5819,1 55780U 23028AR  23131.94755186  .00003236  00000-0  28669-4 0  9994,2 55780  70.0000 320.6608 0003348 257.5153 102.5668 15.69928903 11535,6737.237,91.724,361.358,356.847,0.0
55780.0,STARLINK-5819,PAYLOAD,2023-05-12 15:33:44,15.69930641,0.0003309,69.9993,318.6903,249.8449,110.2391,8.6563e-06,8.28e-06,0.0,0 STARLINK-5819,1 55780U 23028AR  23132.64843427  .00000828  00000-0  86563-5 0  9990,2 55780  69.9993 318.6903 0003309 249.8449 110.2391 15.69930641 11640,6737.232,91.724,361.327,356.868,0.0
55780.0,STARLINK-5819,PAYLOAD,2023-05-13 05:19:31,15.69918841,0.0003359,70.0006,317.0793,268.2109,91.8702,1.8039e-05,1.956e-05,0.0,0 STARLINK-5819,1 55780U 23028AR  23133.22189292  .00001956  00000-0  18039-4 0  9993,2 55780  70.0006 317.0793 0003359 268.2109  91.8702 15.69918841 11739,6737.266,91.724,361.394,356.868,0.0
55780.0,STARLINK-5819,PAYLOAD,2023-05-13 12:58:17,15.69917541,0.0003226,70.0011,316.1851,262.1588,97.9241,1.146e-05,1.165e-05,0.0,0 STARLINK-5819,1 55780U 23028AR  23133.54047782  .00001165  00000-0  11460-4 0  9998,2 55780  70.0011 316.1851 0003226 262.1588  97.9241 15.69917541 11783,6737.27,91.725,361.308,356.961,0.0
55780.0,STARLINK-5819,PAYLOAD,2023-05-13 20:37:02,15.69922325,0.0003449,69.9999,315.2911,255.1234,104.9579,-2.6676e-06,-5.33e-06,0.0,0 STARLINK-5819,1 55780U 23028AR  23133.85905942 -.00000533  00000-0 -26676-5 0  9999,2 55780  69.9999 315.2911 0003449 255.1234 104.9579 15.69922325 11834,6737.256,91.724,361.445,356.798,0.0
55780.0,STARLINK-5819,PAYLOAD,2023-05-14 05:47:32,15.69935205,0.000377,70.0001,314.2119,269.2945,90.7819,3.4013e-05,3.881e-05,0.0,0 STARLINK-5819,1 55780U 23028AR  23134.24135246  .00003881  00000-0  34013-4 0  9995,2 55780  70.0001 314.2119 0003770 269.2945  90.7819 15.69935205 11898,6737.219,91.724,361.624,356.544,0.0
55780.0,STARLINK-5819,PAYLOAD,2023-05-14 13:26:18,15.69937312,0.0003742,70.0006,313.3167,263.057,97.02,2.7415e-05,3.087e-05,0.0,0 STARLINK-5819,1 55780U 23028AR  23134.55993368  .00003087  00000-0  27415-4 0  9992,2 55780  70.0006 313.3167 0003742 263.0570  97.0200 15.69937312 11942,6737.213,91.723,361.599,356.557,0.0
